[{"OBJECT_NAME":"STARLINK-4686","OBJECT_ID":"2022-107R","EPOCH":"2026-03-09T22:17:09.394944","MEAN_MOTION":15.08814005,"ECCENTRICITY":0.00010655,"INCLINATION":53.2164,"RA_OF_ASC_NODE":252.7666,"ARG_OF_PERICENTER":73.4019,"MEAN_ANOMALY":286.709,"EPHEMERIS_TYPE":0,"CLASSIFICATION_TYPE":"U","NORAD_CAT_ID":53715,"ELEMENT_SET_NO":999,"REV_AT_EPOCH":19445,"BSTAR":-0.00013880336,"MEAN_MOTION_DOT":-2.494e-5,"MEAN_MOTION_DDOT":0},{"OBJECT_NAME":"COSMOS 2084","OBJECT_ID":"1990-055A","EPOCH":"2026-03-09T23:42:10.320480","MEAN_MOTION":15.05654003,"ECCENTRICITY":0.00170188,"INCLINATION":62.7921,"RA_OF_ASC_NODE":334.5624,"ARG_OF_PERICENTER":190.1371,"MEAN_ANOMALY":169.9389,"EPHEMERIS_TYPE":0,"CLASSIFICATION_TYPE":"U","NORAD_CAT_ID":20663,"ELEMENT_SET_NO":999,"REV_AT_EPOCH":93636,"BSTAR":0.00023056361,"MEAN_MOTION_DOT":3.154e-5,"MEAN_MOTION_DDOT":0}]
